#aP2004  5 29  0  0  0.00000000      96 ORBIT IGb00 HLM  IGS
## 1272 518400.00000000   900.00000000 53154 0.0000000000000
+   28     1  3  4  5  6  7  8  9 10 11 13 14 15 16 17 18 19
+         20 21 22 24 25 26 27 28 29 30 31  0  0  0  0  0  0
+          0  0  0  0  0  0  0  0  0  0  0  0  0  0  0  0  0
+          0  0  0  0  0  0  0  0  0  0  0  0  0  0  0  0  0
+          0  0  0  0  0  0  0  0  0  0  0  0  0  0  0  0  0
++         3  3  3  3  3  3  3  3  3  4  4  4  3  3  3  4  4
++         3  4  4  3  3  3  3  4  3  3  3  0  0  0  0  0  0
++         0  0  0  0  0  0  0  0  0  0  0  0  0  0  0  0  0
++         0  0  0  0  0  0  0  0  0  0  0  0  0  0  0  0  0
++         0  0  0  0  0  0  0  0  0  0  0  0  0  0  0  0  0
%c cc cc ccc ccc cccc cccc cccc cccc ccccc ccccc ccccc ccccc
%c cc cc ccc ccc cccc cccc cccc cccc ccccc ccccc ccccc ccccc
%f  0.0000000  0.000000000  0.00000000000  0.000000000000000
%f  0.0000000  0.000000000  0.00000000000  0.000000000000000
%i    0    0    0    0      0      0      0      0         0
%i    0    0    0    0      0      0      0      0         0
/* FINAL ORBIT COMBINATION FROM WEIGHTED AVERAGE OF:        
/* cod emr esa gfz jpl mit ngs sio                          
/* REFERENCED TO IGS TIME AND TO WEIGHTED MEAN POLE:        
/* CLK ANT Z-OFFSET (M): II/IIA 1.023; IIR 0.000            
*  2004  5 29 15  0  0.00000000
P  1   2903.210601  19048.202504  18431.399141    346.108056
P  3 -10859.611218  24090.428780   -755.220508     14.601574
P  4  24676.411831  -5569.270403   8620.461478   -159.988075
P  5 -12339.740458 -23298.281874  -4046.160379     32.408201
P  6 -12168.033769 -10501.848692  21330.741716     31.493257
P  7  18137.785076 -12467.953523 -14340.441224    524.493450
P  8  26684.669639   -430.514169  -1801.688079     -1.020496
P  9  -7821.392684 -14781.476642 -21148.047697    -46.740941
P 10   2732.229333 -19383.906052  17757.063613     44.763534
P 11   9680.104019  14655.435017 -19963.439050    120.920760
P 13  13212.726567   6472.271681  22058.525993    -28.077259
P 14 -18411.817714  11083.508585 -15566.770028    -20.695459
P 15 -24621.602979   4729.680868  -9385.097261    272.808076
P 16  -5797.703360  17134.369823  19523.113049     11.347666
P 17   1554.362672 -15048.158155  22013.017324    -17.413051
P 18 -18040.717251 -14104.351133 -13618.739409    -39.385156
P 19  -4617.486497  23046.138768 -12343.762662    -43.982256
P 20  13492.825782  22878.652667    -33.691546   -158.404084
P 21 -25231.620262  -5887.531241   6728.562136     75.964444
P 22 -16925.482707  -2140.466427 -20193.623710      7.160590
P 24  14970.317976 -12096.624868  18632.685817     30.559093
P 25 -21833.489796  10257.708576  11483.196763     67.697514
P 26   6296.002725 -23633.574117  -9809.656298     95.075960
P 27  24538.218252   5532.851116   9750.017809    220.439483
P 28  17228.414965   1865.796994 -20012.238858     33.112817
P 29   9962.152086 -24168.460285  -4189.374369    230.100426
P 30 -18127.905829 -17470.668198   8398.391337    541.276029
P 31   6381.873104  17931.038480 -18779.948517    185.484692
*  2004  5 29 15 15  0.00000000
P  1   1828.723362  20711.259862  16673.789269    346.109318
P  3 -11160.057063  23866.529711   2046.954715     14.604906
P  4  25504.485334  -5360.441333   5948.831999   -159.999403
P  5 -11740.044542 -22990.905545  -6750.485512     32.410262
P  6 -11041.465112 -12598.505660  20784.386594     31.552885
P  7  17581.672586 -10707.207520 -16284.973097    524.480541
P  8  26707.523595   -211.130666   1042.658090     -1.021379
P  9  -5471.828306 -14985.612712 -21713.519708    -46.744039
P 10   3948.055735 -17622.072731  19316.001378     44.764859
P 11   7377.352880  15073.990641 -20612.258188    120.923323
P 13  12009.561553   8692.519795  21990.161635    -28.076841
P 14 -17646.446540   9345.574037 -17471.072616    -20.696075
P 15 -25500.815535   4496.632665  -6732.745452    272.811695
P 16  -7094.971718  15254.712521  20628.629348     11.347271
P 17   4011.306381 -14805.710292  21798.116018    -17.431680
P 18 -18574.881019 -15434.291975 -11281.092815    -39.387826
P 19  -5463.531917  24035.343914  -9894.488538    -43.975827
P 20  13199.621681  22877.016016  -2888.762166   -158.400650
P 21 -24313.814776  -6105.121988   9344.323241     75.964628
P 22 -17925.020420  -4184.623368 -18981.015613      7.163841
P 24  16946.281805 -11947.273774  16939.083733     30.562227
P 25 -22982.590924  10138.099180   8997.026248     67.698546
P 26   6940.698941 -24361.168033  -7099.984150     95.091159
P 27  23386.447554   5845.024323  12174.178926    220.462878
P 28  18315.759163   3838.045388 -18766.117322     33.113819
P 29  10303.761332 -24381.290584  -1315.415526    230.097439
P 30 -18356.836727 -18324.213373   5743.426074    541.281024
P 31   5365.163323  19676.139854 -17228.228273    185.502669
*  2004  5 29 15 30  0.00000000
P  1    940.652164  22239.207434  14632.190996    346.108756
P  3 -11361.214445  23360.719810   4813.352911     14.608955
P  4  26037.190172  -5173.498074   3176.766950   -160.010680
P  5 -10937.785861 -22483.826784  -9340.225217     32.410519
P  6 -10049.308173 -14674.819892  19885.775000     31.612511
P  7  17033.103630  -8728.812487 -17939.159372    524.467206
P  8  26423.798130     28.046943   3869.375696     -1.021612
P  9  -3090.773153 -15317.817780 -21921.073694    -46.746876
P 10   5347.482040 -15800.277631  20538.137585     44.765284
P 11   5041.826341  15603.132481 -20907.202355    120.925820
P 13  10944.461426  10948.834192  21541.744827    -28.076619
P 14 -16894.975209   7386.634817 -19073.785452    -20.696751
P 15 -26087.816908   4303.494967  -3967.037561    272.815355
P 16  -8549.376500  13360.462327  21381.538707     11.346641
P 17   6440.232365 -14695.705906  21212.101035    -17.449818
P 18 -19029.903466 -16502.506576  -8751.350885    -39.391162
P 19  -6122.837776  24812.725940  -7274.914716    -43.969432
P 20  12719.676858  22630.792195  -5694.171146   -158.397315
P 21 -23123.308496  -6384.591239  11802.697440     75.965179
P 22 -18944.997330  -6040.982363 -17437.338248      7.167164
P 24  18723.329530 -11895.022803  14960.899611     30.564048
P 25 -23855.341042  10022.682868   6358.141139     67.700495
P 26   7413.177268 -24834.970904  -4264.596794     95.105880
P 27  21999.225590   6253.404071  14399.006472    220.486330
P 28  19410.804967   5616.842889 -17194.935823     33.114872
P 29  10501.574841 -24311.523435   1581.360225    230.094384
P 30 -18443.866797 -18920.266985   2989.646565    541.286100
P 31   4501.671672  21295.613809 -15384.590147    185.520497
*  2004  5 29 15 45  0.00000000
P  1    229.645209  23588.059444  12340.976751    346.109789
P  3 -11497.619525  22568.563143   7495.568645     14.612050
P  4  26267.529016  -4971.545827    351.089050   -160.021400
P  5  -9919.322328 -21811.350379 -11771.558531     32.412150
P  6  -9198.203411 -16685.937849  18649.533554     31.672090
P  7  16525.631858  -6562.489374 -19272.950724    524.454115
P  8  25840.939461    323.809974   6630.552773     -1.022599
P  9   -723.752652 -15774.525678 -21766.349006    -46.750505
P 10   6917.012965 -13966.229160  21402.804935     44.766241
P 11   2717.687881  16237.149880 -20842.811395    120.928462
P 13  10032.974064  13192.847186  20721.295247    -28.075829
P 14 -16194.171529   5236.323754 -20347.141252    -20.697274
P 15 -26371.475509   4113.397946  -1134.405705    272.819417
P 16 -10141.385550  11495.350651  21769.116260     11.346198
P 17   8792.528859 -14711.040198  20262.608900    -17.468065
P 18 -19365.927945 -17308.716367  -6072.756524    -39.394422
P 19  -6617.004814  25345.669542  -4530.290261    -43.962900
P 20  12029.192113  22169.634732  -8401.773468   -158.393791
P 21 -21684.395786  -6756.455190  14061.872526     75.965503
P 22 -19945.947309  -7685.100242 -15589.744272      7.170297
P 24  20267.649969 -11911.746980  12730.856231     30.565870
P 25 -24440.800656   9875.169507   3610.894102     67.701753
P 26   7741.763077 -25025.799077  -1353.360659     95.120686
P 27  20408.390393   6782.140043  16388.602930    220.509851
P 28  20473.599650   7180.940703 -15326.924423     33.116012
P 29  10591.673425 -23944.870483   4450.851836    230.091537
P 30 -18355.852537 -19272.884894    184.566241    541.291591
P 31   3782.699354  22747.623765 -13279.010581    185.538505
EOF
